{"type": "FeatureCollection", "features": [ {"type": "Feature", "properties": {"norad_id": 34409, "name": "COSMOS 2251 DEB", "group": "cosmos-2251-debris", "lat": 37.42923236455888, "lon": 88.33855760565913, "alt_km": 745.035483077796, "timestamp": "2025-12-26T08:37:54.973864+00:00", "meta": {"OBJECT_NAME": "COSMOS 2251 DEB", "OBJECT_ID": "1993-036RA", "EPOCH": "2025-12-25T13:02:36.481056", "MEAN_MOTION": 14.5805798, "ECCENTRICITY": 0.0080423, "INCLINATION": 74.0637, "RA_OF_ASC_NODE": 282.5201, "ARG_OF_PERICENTER": 353.529, "MEAN_ANOMALY": 184.2935, "EPHEMERIS_TYPE": 0, "CLASSIFICATION_TYPE": "U", "NORAD_CAT_ID": 34409, "ELEMENT_SET_NO": 999, "REV_AT_EPOCH": 89379, "BSTAR": 0.00026547, "MEAN_MOTION_DOT": 1.245e-05, "MEAN_MOTION_DDOT": 0}, "tle": {"line1": "1 34409U 93036RA  25359.54347779  .00001245  00000+0  26547-3 0  9999", "line2": "2 34409  74.0637 282.5201 0080423 353.5290 184.2935 14.58057980893798"}}, "geometry": {"type": "Point", "coordinates": [88.33855760565913, 37.42923236455888]}}, {"type": "Feature", "properties": {"norad_id": 34410, "name": "COSMOS 2251 DEB", "group": "cosmos-2251-debris", "lat": -45.53350426310041, "lon": -144.6126247292189, "alt_km": 518.8563049997392, "timestamp": "2025-12-26T08:37:54.973874+00:00", "meta": {"OBJECT_NAME": "COSMOS 2251 DEB", "OBJECT_ID": "1993-036RB", "EPOCH": "2025-12-25T20:46:45.679008", "MEAN_MOTION": 15.20131672, "ECCENTRICITY": 0.0021099, "INCLINATION": 73.7359, "RA_OF_ASC_NODE": 233.7447, "ARG_OF_PERICENTER": 72.7223, "MEAN_ANOMALY": 58.0348, "EPHEMERIS_TYPE": 0, "CLASSIFICATION_TYPE": "U", "NORAD_CAT_ID": 34410, "ELEMENT_SET_NO": 999, "REV_AT_EPOCH": 89973, "BSTAR": 0.0019325, "MEAN_MOTION_DOT": 0.00042248, "MEAN_MOTION_DDOT": 0}, "tle": {"line1": "1 34410U 93036RB  25359.86580647  .00042248  00000+0  19325-2 0  9992", "line2": "2 34410  73.7359 233.7447 0021099  72.7223  58.0348 15.20131672899734"}}, "geometry": {"type": "Point", "coordinates": [-144.6126247292189, -45.53350426310041]}}, {"type": "Feature", "properties": {"norad_id": 34412, "name": "COSMOS 2251 DEB", "group": "cosmos-2251-debris", "lat": -0.9702530690710944, "lon": 119.27287000192158, "alt_km": 852.1376799705276, "timestamp": "2025-12-26T08:37:54.973884+00:00", "meta": {"OBJECT_NAME": "COSMOS 2251 DEB", "OBJECT_ID": "1993-036RD", "EPOCH": "2025-12-26T04:29:28.156416", "MEAN_MOTION": 14.47310184, "ECCENTRICITY": 0.0187709, "INCLINATION": 73.9487, "RA_OF_ASC_NODE": 299.3179, "ARG_OF_PERICENTER": 31.2998, "MEAN_ANOMALY": 329.9173, "EPHEMERIS_TYPE": 0, "CLASSIFICATION_TYPE": "U", "NORAD_CAT_ID": 34412, "ELEMENT_SET_NO": 999, "REV_AT_EPOCH": 87845, "BSTAR": 0.0017291, "MEAN_MOTION_DOT": 7.876e-05, "MEAN_MOTION_DDOT": 0}, "tle": {"line1": "1 34412U 93036RD  25360.18713144  .00007876  00000+0  17291-2 0  9999", "line2": "2 34412  73.9487 299.3179 0187709  31.2998 329.9173 14.47310184878457"}}, "geometry": {"type": "Point", "coordinates": [119.27287000192158, -0.9702530690710944]}}, {"type": "Feature", "properties": {"norad_id": 34413, "name": "COSMOS 2251 DEB", "group": "cosmos-2251-debris", "lat": 32.24784117462894, "lon": 49.732787404504144, "alt_km": 855.9086776977874, "timestamp": "2025-12-26T08:37:54.973894+00:00", "meta": {"OBJECT_NAME": "COSMOS 2251 DEB", "OBJECT_ID": "1993-036RE", "EPOCH": "2025-12-24T22:25:10.363872", "MEAN_MOTION": 14.291856, "ECCENTRICITY": 0.0090951, "INCLINATION": 74.0301, "RA_OF_ASC_NODE": 242.7297, "ARG_OF_PERICENTER": 316.973, "MEAN_ANOMALY": 57.9695, "EPHEMERIS_TYPE": 0, "CLASSIFICATION_TYPE": "U", "NORAD_CAT_ID": 34413, "ELEMENT_SET_NO": 999, "REV_AT_EPOCH": 87305, "BSTAR": 0.0013959, "MEAN_MOTION_DOT": 3.681e-05, "MEAN_MOTION_DDOT": 0}, "tle": {"line1": "1 34413U 93036RE  25358.93414773  .00003681  00000+0  13959-2 0  9993", "line2": "2 34413  74.0301 242.7297 0090951 316.9730  57.9695 14.29185600873058"}}, "geometry": {"type": "Point", "coordinates": [49.732787404504144, 32.24784117462894]}}, {"type": "Feature", "properties": {"norad_id": 34420, "name": "COSMOS 2251 DEB", "group": "cosmos-2251-debris", "lat": -1.6737451540536645, "lon": 77.13588348158206, "alt_km": 740.5909245989187, "timestamp": "2025-12-26T08:37:54.973904+00:00", "meta": {"OBJECT_NAME": "COSMOS 2251 DEB", "OBJECT_ID": "1993-036RM", "EPOCH": "2025-12-25T01:53:27.691872", "MEAN_MOTION": 14.68332611, "ECCENTRICITY": 0.01060549, "INCLINATION": 74.0333, "RA_OF_ASC_NODE": 80.0919, "ARG_OF_PERICENTER": 198.2983, "MEAN_ANOMALY": 231.8315, "EPHEMERIS_TYPE": 0, "CLASSIFICATION_TYPE": "U", "NORAD_CAT_ID": 34420, "ELEMENT_SET_NO": 999, "REV_AT_EPOCH": 89951, "BSTAR": 0.00021975448, "MEAN_MOTION_DOT": 1.346e-05, "MEAN_MOTION_DDOT": 0}, "tle": {"line1": "1 34420U 93036RM  25359.07879273  .00001346  00000+0  21975-3 0  9991", "line2": "2 34420  74.0333  80.0919 0106054 198.2983 231.8315 14.68332611899518"}}, "geometry": {"type": "Point", "coordinates": [77.13588348158206, -1.6737451540536645]}}, {"type": "Feature", "properties": {"norad_id": 34425, "name": "COSMOS 2251 DEB", "group": "cosmos-2251-debris", "lat": 34.301816605530774, "lon": -162.8648392388318, "alt_km": 666.6401518976936, "timestamp": "2025-12-26T08:37:54.973914+00:00", "meta": {"OBJECT_NAME": "COSMOS 2251 DEB", "OBJECT_ID": "1993-036RS", "EPOCH": "2025-12-26T03:02:59.608320", "MEAN_MOTION": 14.62197584, "ECCENTRICITY": 0.0024068, "INCLINATION": 74.0191, "RA_OF_ASC_NODE": 28.8548, "ARG_OF_PERICENTER": 151.4637, "MEAN_ANOMALY": 208.7853, "EPHEMERIS_TYPE": 0, "CLASSIFICATION_TYPE": "U", "NORAD_CAT_ID": 34425, "ELEMENT_SET_NO": 999, "REV_AT_EPOCH": 88936, "BSTAR": 0.00050597, "MEAN_MOTION_DOT": 2.529e-05, "MEAN_MOTION_DDOT": 0}, "tle": {"line1": "1 34425U 93036RS  25360.12707880  .00002529  00000+0  50597-3 0  9994", "line2": "2 34425  74.0191  28.8548 0024068 151.4637 208.7853 14.62197584889368"}}, "geometry": {"type": "Point", "coordinates": [-162.8648392388318, 34.301816605530774]}}, {"type": "Feature", "properties": {"norad_id": 34429, "name": "COSMOS 2251 DEB", "group": "cosmos-2251-debris", "lat": -73.87114960584749, "lon": 54.352578019828435, "alt_km": 426.62904829161016, "timestamp": "2025-12-26T08:37:54.973925+00:00", "meta": {"OBJECT_NAME": "COSMOS 2251 DEB", "OBJECT_ID": "1993-036RW", "EPOCH": "2025-12-25T19:41:46.493664", "MEAN_MOTION": 15.47531411, "ECCENTRICITY": 0.00141306, "INCLINATION": 73.9684, "RA_OF_ASC_NODE": 139.4433, "ARG_OF_PERICENTER": 342.6607, "MEAN_ANOMALY": 167.4573, "EPHEMERIS_TYPE": 0, "CLASSIFICATION_TYPE": "U", "NORAD_CAT_ID": 34429, "ELEMENT_SET_NO": 999, "REV_AT_EPOCH": 89650, "BSTAR": 0.0054719201, "MEAN_MOTION_DOT": 0.00293252, "MEAN_MOTION_DDOT": 0}, "tle": {"line1": "1 34429U 93036RW  25359.82067701  .00293252  00000+0  54719-2 0  9998", "line2": "2 34429  73.9684 139.4433 0014130 342.6607 167.4573 15.47531411896508"}}, "geometry": {"type": "Point", "coordinates": [54.352578019828435, -73.87114960584749]}}, {"type": "Feature", "properties": {"norad_id": 34430, "name": "COSMOS 2251 DEB", "group": "cosmos-2251-debris", "lat": -72.21672963468124, "lon": 161.29901804932592, "alt_km": 760.7376359795189, "timestamp": "2025-12-26T08:37:54.973935+00:00", "meta": {"OBJECT_NAME": "COSMOS 2251 DEB", "OBJECT_ID": "1993-036RX", "EPOCH": "2025-12-26T02:24:41.067648", "MEAN_MOTION": 14.39671247, "ECCENTRICITY": 0.0060938, "INCLINATION": 74.0518, "RA_OF_ASC_NODE": 278.7106, "ARG_OF_PERICENTER": 345.2643, "MEAN_ANOMALY": 14.6732, "EPHEMERIS_TYPE": 0, "CLASSIFICATION_TYPE": "U", "NORAD_CAT_ID": 34430, "ELEMENT_SET_NO": 999, "REV_AT_EPOCH": 88147, "BSTAR": 0.00044225, "MEAN_MOTION_DOT": 1.387e-05, "MEAN_MOTION_DDOT": 0}, "tle": {"line1": "1 34430U 93036RX  25360.10047532  .00001387  00000+0  44225-3 0  9991", "line2": "2 34430  74.0518 278.7106 0060938 345.2643  14.6732 14.39671247881470"}}, "geometry": {"type": "Point", "coordinates": [161.29901804932592, -72.21672963468124]}}, {"type": "Feature", "properties": {"norad_id": 34431, "name": "COSMOS 2251 DEB", "group": "cosmos-2251-debris", "lat": -7.607777528095415, "lon": 148.3601409466387, "alt_km": 836.4890324188991, "timestamp": "2025-12-26T08:37:54.973945+00:00", "meta": {"OBJECT_NAME": "COSMOS 2251 DEB", "OBJECT_ID": "1993-036RY", "EPOCH": "2025-12-25T20:54:23.497920", "MEAN_MOTION": 14.2881916, "ECCENTRICITY": 0.0067658, "INCLINATION": 74.0741, "RA_OF_ASC_NODE": 151.4299, "ARG_OF_PERICENTER": 133.6134, "MEAN_ANOMALY": 227.0657, "EPHEMERIS_TYPE": 0, "CLASSIFICATION_TYPE": "U", "NORAD_CAT_ID": 34431, "ELEMENT_SET_NO": 999, "REV_AT_EPOCH": 87330, "BSTAR": 0.00072363, "MEAN_MOTION_DOT": 1.845e-05, "MEAN_MOTION_DDOT": 0}, "tle": {"line1": "1 34431U 93036RY  25359.87110530  .00001845  00000+0  72363-3 0  9996", "line2": "2 34431  74.0741 151.4299 0067658 133.6134 227.0657 14.28819160873304"}}, "geometry": {"type": "Point", "coordinates": [148.3601409466387, -7.607777528095415]}}, {"type": "Feature", "properties": {"norad_id": 34432, "name": "COSMOS 2251 DEB", "group": "cosmos-2251-debris", "lat": 6.842514950716604, "lon": -103.66657526180646, "alt_km": 757.2434291608715, "timestamp": "2025-12-26T08:37:54.973955+00:00", "meta": {"OBJECT_NAME": "COSMOS 2251 DEB", "OBJECT_ID": "1993-036RZ", "EPOCH": "2025-12-25T15:15:44.199072", "MEAN_MOTION": 14.02958931, "ECCENTRICITY": 0.0181292, "INCLINATION": 73.8285, "RA_OF_ASC_NODE": 79.6035, "ARG_OF_PERICENTER": 160.2499, "MEAN_ANOMALY": 318.0811, "EPHEMERIS_TYPE": 0, "CLASSIFICATION_TYPE": "U", "NORAD_CAT_ID": 34432, "ELEMENT_SET_NO": 999, "REV_AT_EPOCH": 85865, "BSTAR": 0.0011474, "MEAN_MOTION_DOT": 2.034e-05, "MEAN_MOTION_DDOT": 0}, "tle": {"line1": "1 34432U 93036RZ  25359.63592823  .00002034  00000+0  11474-2 0  9996", "line2": "2 34432  73.8285  79.6035 0181292 160.2499 318.0811 14.02958931858651"}}, "geometry": {"type": "Point", "coordinates": [-103.66657526180646, 6.842514950716604]}}]}